QIANFAN-57              
1 62787U 25016C   26015.59846873  .00000131  00000+0  18493-3 0  9990
2 62787  88.9775  99.7086 0002479  95.1410 265.0025 13.50987907 51776
QIANFAN-58              
1 62788U 25016D   26015.64366548  .00000118  00000+0  16425-3 0  9991
2 62788  88.9744  99.5251 0012575 239.1536 120.8379 13.50989660 51826
QIANFAN-59              
1 62789U 25016E   26015.59429677  .00000126  00000+0  17599-3 0  9991
2 62789  88.9768  99.6119 0012837 243.6854 116.2979 13.50985904 51812
QIANFAN-60              
1 62790U 25016F   26015.62718142  .00000129  00000+0  18166-3 0  9999
2 62790  88.9749  99.5735 0014464 240.2444 119.7269 13.50995114 51805
QIANFAN-61              
1 62791U 25016G   26015.58605675  .00000131  00000+0  18419-3 0  9995
2 62791  88.9817  99.7638 0013412 239.3954 120.5874 13.50985336 51811
QIANFAN-62              
1 62792U 25016H   26015.59019301  .00000130  00000+0  18244-3 0  9997
2 62792  88.9763  99.6135 0014783 240.2617 119.7064 13.50987976 51804
QIANFAN-63              
1 62793U 25016J   26015.61485415  .00000122  00000+0  17049-3 0  9997
2 62793  88.9769  99.5647 0014716 246.0075 113.9536 13.50986170 51845
QIANFAN-64              
1 62794U 25016K   26015.58192613  .00000113  00000+0  15632-3 0  9995
2 62794  88.9756  99.5376 0012827 237.6304 122.3606 13.50984665 51831
